{
  "type": "FeatureCollection",
  "features": [
    {
      "type": "Feature",
      "properties": {
        "norad_id": 34492,
        "name": "IRIDIUM 33 DEB",
        "group": "iridium-33-debris",
        "lat": -22.1405720288455,
        "lon": -26.75641544506749,
        "alt_km": 830.883868657068,
        "timestamp": "2025-12-12T14:39:18.318357+00:00",
        "meta_object_name": "IRIDIUM 33 DEB",
        "meta_object_id": "1997-051GH",
        "meta_epoch": "2025-12-11T23:52:20.307072",
        "meta_mean_motion": 14.25702027,
        "meta_eccentricity": 0.0188912,
        "meta_inclination": 86.4727,
        "meta_ra_of_asc_node": 334.9304,
        "meta_arg_of_pericenter": 240.6264,
        "meta_mean_anomaly": 175.7475,
        "meta_ephemeris_type": 0,
        "meta_classification_type": "U",
        "meta_norad_cat_id": 34492,
        "meta_element_set_no": 999,
        "meta_rev_at_epoch": 85048,
        "meta_bstar": 0.0061973,
        "meta_mean_motion_dot": 0.00017773,
        "meta_mean_motion_ddot": 0,
        "tle_line1": "1 34492U 97051GH  25345.99467948  .00017773  00000+0  61973-2 0  9991",
        "tle_line2": "2 34492  86.4727 334.9304 0188912 240.6264 175.7475 14.25702027850488"
      },
      "geometry": {
        "type": "Point",
        "coordinates": [
          -26.75641544506749,
          -22.1405720288455
        ]
      }
    },
    {
      "type": "Feature",
      "properties": {
        "norad_id": 34497,
        "name": "IRIDIUM 33 DEB",
        "group": "iridium-33-debris",
        "lat": -32.63614697646786,
        "lon": -125.15390625927269,
        "alt_km": 840.5498679767452,
        "timestamp": "2025-12-12T14:39:18.318366+00:00",
        "meta_object_name": "IRIDIUM 33 DEB",
        "meta_object_id": "1997-051GN",
        "meta_epoch": "2025-12-12T03:42:01.901088",
        "meta_mean_motion": 14.27451136,
        "meta_eccentricity": 0.0078862,
        "meta_inclination": 86.278,
        "meta_ra_of_asc_node": 52.6518,
        "meta_arg_of_pericenter": 341.481,
        "meta_mean_anomaly": 47.7522,
        "meta_ephemeris_type": 0,
        "meta_classification_type": "U",
        "meta_norad_cat_id": 34497,
        "meta_element_set_no": 999,
        "meta_rev_at_epoch": 86875,
        "meta_bstar": 0.00094545609,
        "meta_mean_motion_dot": 2.415e-05,
        "meta_mean_motion_ddot": 0,
        "tle_line1": "1 34497U 97051GN  25346.15418867  .00002415  00000+0  94546-3 0  9991",
        "tle_line2": "2 34497  86.2780  52.6518 0078862 341.4810  47.7522 14.27451136868754"
      },
      "geometry": {
        "type": "Point",
        "coordinates": [
          -125.15390625927269,
          -32.63614697646786
        ]
      }
    },
    {
      "type": "Feature",
      "properties": {
        "norad_id": 34508,
        "name": "IRIDIUM 33 DEB",
        "group": "iridium-33-debris",
        "lat": 5.980396901670305,
        "lon": 103.07858236367717,
        "alt_km": 811.9529332589536,
        "timestamp": "2025-12-12T14:39:18.318376+00:00",
        "meta_object_name": "IRIDIUM 33 DEB",
        "meta_object_id": "1997-051GZ",
        "meta_epoch": "2025-12-12T06:16:44.853600",
        "meta_mean_motion": 14.38423427,
        "meta_eccentricity": 0.00660656,
        "meta_inclination": 86.3697,
        "meta_ra_of_asc_node": 102.8455,
        "meta_arg_of_pericenter": 174.5188,
        "meta_mean_anomaly": 185.6749,
        "meta_ephemeris_type": 0,
        "meta_classification_type": "U",
        "meta_norad_cat_id": 34508,
        "meta_element_set_no": 999,
        "meta_rev_at_epoch": 87302,
        "meta_bstar": 0.0024154083,
        "meta_mean_motion_dot": 7.577e-05,
        "meta_mean_motion_ddot": 0,
        "tle_line1": "1 34508U 97051GZ  25346.26163025  .00007577  00000+0  24154-2 0  9990",
        "tle_line2": "2 34508  86.3697 102.8455 0066065 174.5188 185.6749 14.38423427873021"
      },
      "geometry": {
        "type": "Point",
        "coordinates": [
          103.07858236367717,
          5.980396901670305
        ]
      }
    },
    {
      "type": "Feature",
      "properties": {
        "norad_id": 34521,
        "name": "IRIDIUM 33 DEB",
        "group": "iridium-33-debris",
        "lat": 7.410889499189208,
        "lon": -149.8670196772619,
        "alt_km": 683.627453260865,
        "timestamp": "2025-12-12T14:39:18.318385+00:00",
        "meta_object_name": "IRIDIUM 33 DEB",
        "meta_object_id": "1997-051HN",
        "meta_epoch": "2025-12-12T04:01:21.502272",
        "meta_mean_motion": 14.63360371,
        "meta_eccentricity": 0.00014766,
        "meta_inclination": 86.3802,
        "meta_ra_of_asc_node": 30.7997,
        "meta_arg_of_pericenter": 216.2058,
        "meta_mean_anomaly": 143.9054,
        "meta_ephemeris_type": 0,
        "meta_classification_type": "U",
        "meta_norad_cat_id": 34521,
        "meta_element_set_no": 999,
        "meta_rev_at_epoch": 88464,
        "meta_bstar": 0.0013718047,
        "meta_mean_motion_dot": 7.108e-05,
        "meta_mean_motion_ddot": 0,
        "tle_line1": "1 34521U 97051HN  25346.16760998  .00007108  00000+0  13718-2 0  9990",
        "tle_line2": "2 34521  86.3802  30.7997 0001476 216.2058 143.9054 14.63360371884641"
      },
      "geometry": {
        "type": "Point",
        "coordinates": [
          -149.8670196772619,
          7.410889499189208
        ]
      }
    },
    {
      "type": "Feature",
      "properties": {
        "norad_id": 34525,
        "name": "IRIDIUM 33 DEB",
        "group": "iridium-33-debris",
        "lat": 0.7994982253163553,
        "lon": 46.94949789035797,
        "alt_km": 752.2189766438978,
        "timestamp": "2025-12-12T14:39:18.318394+00:00",
        "meta_object_name": "IRIDIUM 33 DEB",
        "meta_object_id": "1997-051HS",
        "meta_epoch": "2025-12-12T04:55:03.631296",
        "meta_mean_motion": 14.42904301,
        "meta_eccentricity": 0.00066596,
        "meta_inclination": 86.3729,
        "meta_ra_of_asc_node": 47.0719,
        "meta_arg_of_pericenter": 96.5005,
        "meta_mean_anomaly": 318.3145,
        "meta_ephemeris_type": 0,
        "meta_classification_type": "U",
        "meta_norad_cat_id": 34525,
        "meta_element_set_no": 999,
        "meta_rev_at_epoch": 88080,
        "meta_bstar": 0.00059243464,
        "meta_mean_motion_dot": 1.999e-05,
        "meta_mean_motion_ddot": 0,
        "tle_line1": "1 34525U 97051HS  25346.20490314  .00001999  00000+0  59243-3 0  9997",
        "tle_line2": "2 34525  86.3729  47.0719 0006659  96.5005 318.3145 14.42904301880802"
      },
      "geometry": {
        "type": "Point",
        "coordinates": [
          46.94949789035797,
          0.7994982253163553
        ]
      }
    },
    {
      "type": "Feature",
      "properties": {
        "norad_id": 34529,
        "name": "IRIDIUM 33 DEB",
        "group": "iridium-33-debris",
        "lat": -76.45477603017848,
        "lon": -129.22945745678786,
        "alt_km": 763.2985596652543,
        "timestamp": "2025-12-12T14:39:18.318403+00:00",
        "meta_object_name": "IRIDIUM 33 DEB",
        "meta_object_id": "1997-051HW",
        "meta_epoch": "2025-12-11T20:47:45.904128",
        "meta_mean_motion": 14.40614839,
        "meta_eccentricity": 0.00047,
        "meta_inclination": 86.3641,
        "meta_ra_of_asc_node": 35.7841,
        "meta_arg_of_pericenter": 179.4725,
        "meta_mean_anomaly": 180.648,
        "meta_ephemeris_type": 0,
        "meta_classification_type": "U",
        "meta_norad_cat_id": 34529,
        "meta_element_set_no": 999,
        "meta_rev_at_epoch": 88129,
        "meta_bstar": 0.00017623,
        "meta_mean_motion_dot": 5.82e-06,
        "meta_mean_motion_ddot": 0,
        "tle_line1": "1 34529U 97051HW  25345.86650352  .00000582  00000+0  17623-3 0  9995",
        "tle_line2": "2 34529  86.3641  35.7841 0004700 179.4725 180.6480 14.40614839881292"
      },
      "geometry": {
        "type": "Point",
        "coordinates": [
          -129.22945745678786,
          -76.45477603017848
        ]
      }
    },
    {
      "type": "Feature",
      "properties": {
        "norad_id": 34538,
        "name": "IRIDIUM 33 DEB",
        "group": "iridium-33-debris",
        "lat": 85.01209280074421,
        "lon": 137.36991355671736,
        "alt_km": 755.6263996888138,
        "timestamp": "2025-12-12T14:39:18.318412+00:00",
        "meta_object_name": "IRIDIUM 33 DEB",
        "meta_object_id": "1997-051JF",
        "meta_epoch": "2025-12-11T12:17:49.059168",
        "meta_mean_motion": 14.42637449,
        "meta_eccentricity": 0.00329249,
        "meta_inclination": 86.2774,
        "meta_ra_of_asc_node": 6.0934,
        "meta_arg_of_pericenter": 332.21,
        "meta_mean_anomaly": 180.6153,
        "meta_ephemeris_type": 0,
        "meta_classification_type": "U",
        "meta_norad_cat_id": 34538,
        "meta_element_set_no": 999,
        "meta_rev_at_epoch": 87738,
        "meta_bstar": 0.0015467501,
        "meta_mean_motion_dot": 5.192e-05,
        "meta_mean_motion_ddot": 0,
        "tle_line1": "1 34538U 97051JF  25345.51237337  .00005192  00000+0  15468-2 0  9997",
        "tle_line2": "2 34538  86.2774   6.0934 0032924 332.2100 180.6153 14.42637449877383"
      },
      "geometry": {
        "type": "Point",
        "coordinates": [
          137.36991355671736,
          85.01209280074421
        ]
      }
    }
  ]
}